{"type": "FeatureCollection", "features": [ {"type": "Feature", "properties": {"norad_id": 66566, "name": "STARLINK-35871", "group": "last-30-days", "lat": 35.93067031039624, "lon": -149.59162647231065, "alt_km": 372.52001673512314, "timestamp": "2025-12-06T05:40:08.012022+00:00", "meta": {"OBJECT_NAME": "STARLINK-35871", "OBJECT_ID": "2025-268K", "EPOCH": "2025-12-05T06:00:02.000160", "MEAN_MOTION": 15.67866218, "ECCENTRICITY": 0.0001661, "INCLINATION": 42.9995, "RA_OF_ASC_NODE": 165.2578, "ARG_OF_PERICENTER": 263.1285, "MEAN_ANOMALY": 350.7224, "EPHEMERIS_TYPE": 0, "CLASSIFICATION_TYPE": "U", "NORAD_CAT_ID": 66566, "ELEMENT_SET_NO": 999, "REV_AT_EPOCH": 346, "BSTAR": -0.019983551, "MEAN_MOTION_DOT": -0.01997018, "MEAN_MOTION_DDOT": 0}, "tle": {"line1": "1 66566U 25268K   25339.25002315 -.01997018  00000+0 -19984-1 0  9990", "line2": "2 66566  42.9995 165.2578 0001661 263.1285 350.7224 15.67866218  3460"}}, "geometry": {"type": "Point", "coordinates": [-149.59162647231065, 35.93067031039624]}}, {"type": "Feature", "properties": {"norad_id": 66567, "name": "STARLINK-35825", "group": "last-30-days", "lat": 36.73961837572503, "lon": -147.4162062413385, "alt_km": 372.4442747408157, "timestamp": "2025-12-06T05:40:08.012034+00:00", "meta": {"OBJECT_NAME": "STARLINK-35825", "OBJECT_ID": "2025-268L", "EPOCH": "2025-12-05T06:00:02.000160", "MEAN_MOTION": 15.67862832, "ECCENTRICITY": 0.00017338, "INCLINATION": 42.9995, "RA_OF_ASC_NODE": 165.2532, "ARG_OF_PERICENTER": 262.711, "MEAN_ANOMALY": 353.0558, "EPHEMERIS_TYPE": 0, "CLASSIFICATION_TYPE": "U", "NORAD_CAT_ID": 66567, "ELEMENT_SET_NO": 999, "REV_AT_EPOCH": 346, "BSTAR": -0.019908066, "MEAN_MOTION_DOT": -0.01990193, "MEAN_MOTION_DDOT": 0}, "tle": {"line1": "1 66567U 25268L   25339.25002315 -.01990193  00000+0 -19908-1 0  9994", "line2": "2 66567  42.9995 165.2532 0001733 262.7110 353.0558 15.67862832  3467"}}, "geometry": {"type": "Point", "coordinates": [-147.4162062413385, 36.73961837572503]}}, {"type": "Feature", "properties": {"norad_id": 66568, "name": "STARLINK-35803", "group": "last-30-days", "lat": 37.50011706465062, "lon": -145.21978242164698, "alt_km": 372.29736560569654, "timestamp": "2025-12-06T05:40:08.012044+00:00", "meta": {"OBJECT_NAME": "STARLINK-35803", "OBJECT_ID": "2025-268M", "EPOCH": "2025-12-05T06:00:02.000160", "MEAN_MOTION": 15.67864414, "ECCENTRICITY": 0.00016408, "INCLINATION": 42.9995, "RA_OF_ASC_NODE": 165.2479, "ARG_OF_PERICENTER": 262.9153, "MEAN_ANOMALY": 354.7692, "EPHEMERIS_TYPE": 0, "CLASSIFICATION_TYPE": "U", "NORAD_CAT_ID": 66568, "ELEMENT_SET_NO": 999, "REV_AT_EPOCH": 346, "BSTAR": -0.019939413, "MEAN_MOTION_DOT": -0.0199299, "MEAN_MOTION_DDOT": 0}, "tle": {"line1": "1 66568U 25268M   25339.25002315 -.01992990  00000+0 -19939-1 0  9996", "line2": "2 66568  42.9995 165.2479 0001640 262.9153 354.7692 15.67864414  3469"}}, "geometry": {"type": "Point", "coordinates": [-145.21978242164698, 37.50011706465062]}}, {"type": "Feature", "properties": {"norad_id": 66569, "name": "STARLINK-35835", "group": "last-30-days", "lat": 38.22023409165523, "lon": -142.97397812687183, "alt_km": 372.2309901749941, "timestamp": "2025-12-06T05:40:08.012055+00:00", "meta": {"OBJECT_NAME": "STARLINK-35835", "OBJECT_ID": "2025-268N", "EPOCH": "2025-12-05T06:00:02.000160", "MEAN_MOTION": 15.67865255, "ECCENTRICITY": 0.00016779, "INCLINATION": 42.9994, "RA_OF_ASC_NODE": 165.2434, "ARG_OF_PERICENTER": 263.398, "MEAN_ANOMALY": 356.2029, "EPHEMERIS_TYPE": 0, "CLASSIFICATION_TYPE": "U", "NORAD_CAT_ID": 66569, "ELEMENT_SET_NO": 999, "REV_AT_EPOCH": 346, "BSTAR": -0.019950968, "MEAN_MOTION_DOT": -0.01994097, "MEAN_MOTION_DDOT": 0}, "tle": {"line1": "1 66569U 25268N   25339.25002315 -.01994097  00000+0 -19951-1 0  9991", "line2": "2 66569  42.9994 165.2434 0001677 263.3980 356.2029 15.67865255  3468"}}, "geometry": {"type": "Point", "coordinates": [-142.97397812687183, 38.22023409165523]}}, {"type": "Feature", "properties": {"norad_id": 66570, "name": "STARLINK-35834", "group": "last-30-days", "lat": 38.902451783346976, "lon": -140.66504043233948, "alt_km": 372.09549149187114, "timestamp": "2025-12-06T05:40:08.012065+00:00", "meta": {"OBJECT_NAME": "STARLINK-35834", "OBJECT_ID": "2025-268P", "EPOCH": "2025-12-05T06:00:02.000160", "MEAN_MOTION": 15.67853714, "ECCENTRICITY": 0.00016212, "INCLINATION": 42.9994, "RA_OF_ASC_NODE": 165.2379, "ARG_OF_PERICENTER": 261.6286, "MEAN_ANOMALY": 359.8983, "EPHEMERIS_TYPE": 0, "CLASSIFICATION_TYPE": "U", "NORAD_CAT_ID": 66570, "ELEMENT_SET_NO": 999, "REV_AT_EPOCH": 346, "BSTAR": -0.019822931, "MEAN_MOTION_DOT": -0.01981949, "MEAN_MOTION_DDOT": 0}, "tle": {"line1": "1 66570U 25268P   25339.25002315 -.01981949  00000+0 -19823-1 0  9993", "line2": "2 66570  42.9994 165.2379 0001621 261.6286 359.8983 15.67853714  3462"}}, "geometry": {"type": "Point", "coordinates": [-140.66504043233948, 38.902451783346976]}}, {"type": "Feature", "properties": {"norad_id": 66571, "name": "STARLINK-35836", "group": "last-30-days", "lat": 39.53217102148356, "lon": -138.3350831407624, "alt_km": 372.0762427462332, "timestamp": "2025-12-06T05:40:08.012075+00:00", "meta": {"OBJECT_NAME": "STARLINK-35836", "OBJECT_ID": "2025-268Q", "EPOCH": "2025-12-05T06:00:02.000160", "MEAN_MOTION": 15.67858013, "ECCENTRICITY": 0.00016995, "INCLINATION": 42.9995, "RA_OF_ASC_NODE": 165.2335, "ARG_OF_PERICENTER": 262.2503, "MEAN_ANOMALY": 1.1895, "EPHEMERIS_TYPE": 0, "CLASSIFICATION_TYPE": "U", "NORAD_CAT_ID": 66571, "ELEMENT_SET_NO": 999, "REV_AT_EPOCH": 346, "BSTAR": -0.019863089, "MEAN_MOTION_DOT": -0.01985858, "MEAN_MOTION_DDOT": 0}, "tle": {"line1": "1 66571U 25268Q   25339.25002315 -.01985858  00000+0 -19863-1 0  9991", "line2": "2 66571  42.9995 165.2335 0001699 262.2503   1.1895 15.67858013  3466"}}, "geometry": {"type": "Point", "coordinates": [-138.3350831407624, 39.53217102148356]}}, {"type": "Feature", "properties": {"norad_id": 66572, "name": "STARLINK-35870", "group": "last-30-days", "lat": 40.11502249691567, "lon": -135.9606285751084, "alt_km": 372.0159729361212, "timestamp": "2025-12-06T05:40:08.012087+00:00", "meta": {"OBJECT_NAME": "STARLINK-35870", "OBJECT_ID": "2025-268R", "EPOCH": "2025-12-05T06:00:02.000160", "MEAN_MOTION": 15.67854805, "ECCENTRICITY": 0.00016963, "INCLINATION": 42.9996, "RA_OF_ASC_NODE": 165.2297, "ARG_OF_PERICENTER": 261.2793, "MEAN_ANOMALY": 4.0816, "EPHEMERIS_TYPE": 0, "CLASSIFICATION_TYPE": "U", "NORAD_CAT_ID": 66572, "ELEMENT_SET_NO": 999, "REV_AT_EPOCH": 346, "BSTAR": -0.019846727, "MEAN_MOTION_DOT": -0.01984184, "MEAN_MOTION_DDOT": 0}, "tle": {"line1": "1 66572U 25268R   25339.25002315 -.01984184  00000+0 -19847-1 0  9995", "line2": "2 66572  42.9996 165.2297 0001696 261.2793   4.0816 15.67854805  3462"}}, "geometry": {"type": "Point", "coordinates": [-135.9606285751084, 40.11502249691567]}}, {"type": "Feature", "properties": {"norad_id": 66573, "name": "STARLINK-35650", "group": "last-30-days", "lat": 40.650875439397566, "lon": -133.53716964769134, "alt_km": 371.8984638836446, "timestamp": "2025-12-06T05:40:08.012103+00:00", "meta": {"OBJECT_NAME": "STARLINK-35650", "OBJECT_ID": "2025-268S", "EPOCH": "2025-12-05T06:00:02.000160", "MEAN_MOTION": 15.67856009, "ECCENTRICITY": 0.0001704, "INCLINATION": 42.9997, "RA_OF_ASC_NODE": 165.2238, "ARG_OF_PERICENTER": 264.6181, "MEAN_ANOMALY": 2.6565, "EPHEMERIS_TYPE": 0, "CLASSIFICATION_TYPE": "U", "NORAD_CAT_ID": 66573, "ELEMENT_SET_NO": 999, "REV_AT_EPOCH": 346, "BSTAR": -0.01983301, "MEAN_MOTION_DOT": -0.01983069, "MEAN_MOTION_DDOT": 0}, "tle": {"line1": "1 66573U 25268S   25339.25002315 -.01983069  00000+0 -19833-1 0  9992", "line2": "2 66573  42.9997 165.2238 0001704 264.6181   2.6565 15.67856009  3460"}}, "geometry": {"type": "Point", "coordinates": [-133.53716964769134, 40.650875439397566]}}, {"type": "Feature", "properties": {"norad_id": 66574, "name": "STARLINK-35812", "group": "last-30-days", "lat": 41.13080510694758, "lon": -131.09770842626702, "alt_km": 371.8899958957054, "timestamp": "2025-12-06T05:40:08.012115+00:00", "meta": {"OBJECT_NAME": "STARLINK-35812", "OBJECT_ID": "2025-268T", "EPOCH": "2025-12-05T06:00:02.000160", "MEAN_MOTION": 15.67858809, "ECCENTRICITY": 0.0001728, "INCLINATION": 42.9997, "RA_OF_ASC_NODE": 165.2188, "ARG_OF_PERICENTER": 264.1752, "MEAN_ANOMALY": 5.0161, "EPHEMERIS_TYPE": 0, "CLASSIFICATION_TYPE": "U", "NORAD_CAT_ID": 66574, "ELEMENT_SET_NO": 999, "REV_AT_EPOCH": 346, "BSTAR": -0.019883556, "MEAN_MOTION_DOT": -0.0198774, "MEAN_MOTION_DDOT": 0}, "tle": {"line1": "1 66574U 25268T   25339.25002315 -.01987740  00000+0 -19884-1 0  9999", "line2": "2 66574  42.9997 165.2188 0001728 264.1752   5.0161 15.67858809  3469"}}, "geometry": {"type": "Point", "coordinates": [-131.09770842626702, 41.13080510694758]}}, {"type": "Feature", "properties": {"norad_id": 66575, "name": "STARLINK-35810", "group": "last-30-days", "lat": 41.557828640787605, "lon": -128.62654315226553, "alt_km": 371.89909438902123, "timestamp": "2025-12-06T05:40:08.012125+00:00", "meta": {"OBJECT_NAME": "STARLINK-35810", "OBJECT_ID": "2025-268U", "EPOCH": "2025-12-05T06:00:02.000160", "MEAN_MOTION": 15.67863703, "ECCENTRICITY": 0.00017433, "INCLINATION": 42.9996, "RA_OF_ASC_NODE": 165.214, "ARG_OF_PERICENTER": 262.5108, "MEAN_ANOMALY": 8.5953, "EPHEMERIS_TYPE": 0, "CLASSIFICATION_TYPE": "U", "NORAD_CAT_ID": 66575, "ELEMENT_SET_NO": 999, "REV_AT_EPOCH": 346, "BSTAR": -0.019951639, "MEAN_MOTION_DOT": -0.01994097, "MEAN_MOTION_DDOT": 0}, "tle": {"line1": "1 66575U 25268U   25339.25002315 -.01994097  00000+0 -19952-1 0  9999", "line2": "2 66575  42.9996 165.2140 0001743 262.5108   8.5953 15.67863703  3467"}}, "geometry": {"type": "Point", "coordinates": [-128.62654315226553, 41.557828640787605]}}]}